STARLINK-30788          
1 58159C 23166K   26081.16993056  .00059924  00000+0  20227-2 0   817
2 58159  53.1591 161.8314 0001332 102.2052  33.7847 15.30113400    10
STARLINK-30779          
1 58160C 23166L   26081.09909722  .00221400  00000+0  74790-2 0   812
2 58160  53.1589 162.1148 0001277  65.6119  63.2001 15.30007304    17
STARLINK-30773          
1 58161C 23166M   26081.12409722  .00046586  00000+0  15717-2 0   816
2 58161  53.1572 161.8091 0001243 102.0240 251.8731 15.30136523    18
STARLINK-30816          
1 58162C 23166N   26081.17409722  .00062660  00000+0  21137-2 0   816
2 58162  53.1568 161.5610 0001335  69.3150 217.5816 15.30131948    14
STARLINK-30763          
1 58163C 23166P   26081.10395833  .00031114  00000+0  10506-2 0   815
2 58163  53.1572 149.3771 0000986  88.9526 133.5911 15.30116900    11
STARLINK-30815          
1 58164C 23166Q   26081.12548611  .00058299  00000+0  19654-2 0   818
2 58164  53.1581 161.8923 0001418 108.7786 217.7805 15.30153948    10
STARLINK-30814          
1 58165C 23166R   26081.05951389 -.00188760  00000+0 -63649-2 0   813
2 58165  53.1569 161.8774 0001047  92.6513  33.2709 15.30270931    14
STARLINK-30789          
1 58166C 23166S   26081.16784722  .00049787  00000+0  16800-2 0   811
2 58166  53.1578 161.6606 0001345 119.9788  97.5799 15.30127047    16
STARLINK-30811          
1 58167C 23166T   26081.17201389  .00061237  00000+0  20655-2 0   813
2 58167  53.1565 161.4235 0001198 103.4268 247.6046 15.30136976    10
STARLINK-30812          
1 58168C 23166U   26081.08520833  .00035627  00000+0  12022-2 0   815
2 58168  53.1566 161.7932 0001098  95.8997 154.1512 15.30136176    13
STARLINK-30771          
1 58169C 23166V   26081.15673611  .00051031  00000+0  17215-2 0   813
2 58169  53.1564 161.6085 0001311 110.2669  98.4027 15.30137076    17
STARLINK-30764          
1 58170C 23166W   26081.04145833  .00034335  00000+0  11585-2 0   815
2 58170  53.1564 162.1097 0001189  97.4431 213.3088 15.30137517    19
STARLINK-30752          
1 58171C 23166X   26081.05256944  .00028085  00000+0  94769-3 0   814
2 58171  53.1563 162.0144 0001081 101.4876 287.9629 15.30139250    15
STARLINK-30753          
1 58175C 23167A   26081.05187500 -.00014688  00000+0 -54540-3 0   819
2 58175  43.0042  73.6737 0001340 261.3477 142.2566 15.26767790    19
STARLINK-30824          
1 58176C 23167B   26081.13451389 -.00082457  00000+0 -29872-2 0   816
2 58176  43.0015  73.2795 0001272 260.1909 206.5171 15.27613157    15
STARLINK-30791          
1 58177C 23167C   26081.13034722 -.00056274  00000+0 -20901-2 0   817
2 58177  43.0018  72.7702 0001161 265.1322  34.7599 15.26781738    17
STARLINK-30810          
1 58178C 23167D   26081.07895833 -.00022361  00000+0 -80943-3 0   812
2 58178  43.0012  73.0292 0001051 266.3999 127.8453 15.27609424    16
STARLINK-30819          
1 58179C 23167E   26081.08243056 -.00059193  00000+0 -21410-2 0   814
2 58179  43.0040  73.4328 0001603 259.0114 337.4323 15.27653071    15
STARLINK-30806          
1 58180C 23167F   26081.05743056  .00000678  00000+0  24595-4 0   819
2 58180  43.0043  73.4997 0001342 274.3126 212.8814 15.27548817    17
STARLINK-30821          
1 58181C 23167G   26081.05048611 -.00028317  00000+0 -10245-2 0   812
2 58181  43.0035  73.4509 0001089 266.2267 218.0064 15.27630465    18
STARLINK-30778          
1 58182C 23167H   26081.06993056 -.00045202  00000+0 -16362-2 0   814
2 58182  43.0042  73.3777 0001401 263.3450 313.8895 15.27621532    14
STARLINK-30809          
1 58183C 23167J   26081.06576389 -.00000982  00000+0 -35617-4 0   813
2 58183  43.0005  73.8543 0001421 245.4399 117.8448 15.27543575    11
STARLINK-30801          
1 58184C 23167K   26081.13798611 -.00015092  00000+0 -54746-3 0   817
2 58184  43.0010  73.4945 0001408 259.3978 120.3154 15.27536369    18
STARLINK-30793          
1 58185C 23167L   26081.12270833 -.00013750  00000+0 -49858-3 0   815
2 58185  43.0037  73.1804 0001818 252.0185 213.3499 15.27548995    17
STARLINK-30755          
1 58186C 23167M   26081.03381944  .00006209  00000+0  22516-3 0   813
2 58186  43.0020  73.4324 0001125 246.0223 196.0725 15.27538178    18
STARLINK-30760          
1 58187C 23167N   26081.05118056 -.00000173  00000+0 -64232-5 0   817
2 58187  43.0020  73.3969 0000960 259.0356 248.4584 15.26743764    13
STARLINK-30826          
1 58188C 23167P   26081.14840278 -.00006097  00000+0 -22116-3 0   810
2 58188  43.0041  73.0227 0001514 281.4301 332.5098 15.27532115    18
STARLINK-30796          
1 58189C 23167Q   26081.15812500 -.00012751  00000+0 -46224-3 0   819
2 58189  43.0007  72.6770 0001016 277.9611 149.7275 15.27556211    18
STARLINK-30820          
1 58190C 23167R   26081.09909722 -.00044328  00000+0 -16045-2 0   819
2 58190  43.0016  72.9541 0000976 266.3729 217.5673 15.27621581    14
STARLINK-30785          
1 58191C 23167S   26081.08173611 -.00050963  00000+0 -18434-2 0   815
2 58191  43.0020  73.5479 0001357 263.9245 279.1754 15.27647368    12
STARLINK-30807          
1 58192C 23167T   26081.12895833 -.00099524  00000+0 -36039-2 0   815
2 58192  43.0033  73.1809 0001261 264.7958 220.8306 15.27635883    19
STARLINK-30822          
1 58193C 23167U   26081.16576389  .00119670  00000+0  44519-2 0   817
2 58193  43.0002  73.2017 0001584 261.7075 329.2873 15.26639837    18
STARLINK-30830          
1 58194C 23167V   26081.05048611  .00002673  00000+0  96691-4 0   812
2 58194  43.0013  73.2292 0000884 259.3410 309.8706 15.27619188    11
STARLINK-30827          
1 58195C 23167W   26081.13451389 -.00011226  00000+0 -40725-3 0   814
2 58195  43.0015  72.7219 0001473 241.6953  91.4206 15.27531767    13
STARLINK-30798          
1 58196C 23167X   26081.12062500 -.00014605  00000+0 -52881-3 0   817
2 58196  43.0003  73.3776 0001414 258.2831 117.6656 15.27596429    16
STARLINK-30762          
1 58197C 23167Y   26081.16090278 -.00008962  00000+0 -32497-3 0   815
2 58197  43.0006  73.2784 0001149 278.2905 262.9354 15.27545761    19
STARLINK-30800          
1 58206C 23170A   26081.13381944  .00020696  00000+0  75101-3 0   815
2 58206  43.0011 124.3196 0001530 240.7271 285.2212 15.27507113    15
STARLINK-30845          
1 58207C 23170B   26081.09354167  .00028661  00000+0  20653-2 0   819
2 58207  43.0001 128.1660 0001237 272.6054 302.4615 15.03411822    14
STARLINK-30841          
1 58208C 23170C   26081.12618056  .00020635  00000+0  76794-3 0   815
2 58208  43.0005 124.1773 0001567 244.9802 310.2014 15.26677710    14
STARLINK-30839          
1 58209C 23170D   26081.04284722  .00048016  00000+0  17845-2 0   810
2 58209  43.0013 123.9185 0001706 260.0781 150.7532 15.26707190    16
STARLINK-30846          
1 58210C 23170E   26081.09631944  .00043336  00000+0  15699-2 0   814
2 58210  43.0023 124.6332 0001377 254.6241  22.3869 15.27550591    14
STARLINK-30838          
1 58211C 23170F   26081.05187500  .00050099  00000+0  18175-2 0   811
2 58211  42.9989 124.2304 0001343 273.2231  35.0048 15.27501038    10
STARLINK-30837          
1 58212C 23170G   26081.05326389  .00045545  00000+0  16929-2 0   817
2 58212  43.0016 124.7745 0001527 257.8888 176.5667 15.26703885    19
STARLINK-30813          
1 58213C 23170H   26081.04770833  .00049541  00000+0  18431-2 0   814
2 58213  43.0012 124.1882 0001691 259.6969  54.3761 15.26673000    17
STARLINK-30805          
1 58214C 23170J   26081.15534722  .00014864  00000+0  53927-3 0   812
2 58214  43.0009 123.5470 0001612 242.3715 317.9909 15.27515932    13
STARLINK-30851          
1 58215C 23170K   26081.04840278  .00050619  00000+0  18346-2 0   810
2 58215  42.9994 124.1971 0001623 256.8584  53.4679 15.27532472    18
STARLINK-30818          
1 58217C 23170M   26081.06645833  .00045309  00000+0  16873-2 0   817
2 58217  43.0028 124.0035 0001420 261.6006 188.5494 15.26643180    11
STARLINK-30794          
1 58218C 23170N   26081.05395833  .00043822  00000+0  16302-2 0   814
2 58218  43.0024 123.8831 0001558 268.6437 184.9464 15.26678816    17
STARLINK-30835          
1 58219C 23170P   26081.10604167  .00034583  00000+0  12849-2 0   810
2 58219  42.9995 123.9327 0001476 266.6452 335.2009 15.26724115    18
STARLINK-30792          
1 58220C 23170Q   26081.12409722  .00040729  00000+0  28554-2 0   813
2 58220  42.9989 127.8560 0001445  20.3981  53.3228 15.04432586    18
STARLINK-30836          
1 58221C 23170R   26081.08034722  .00041237  00000+0  15317-2 0   811
2 58221  42.9987 124.1612 0001399 253.4094 170.7620 15.26729594    19
STARLINK-30855          
1 58222C 23170S   26081.17201389  .00007284  00000+0  26433-3 0   813
2 58222  43.0004 123.9991 0001524 242.0204 169.5938 15.27513585    16
STARLINK-30840          
1 58223C 23170T   26081.10604167  .00033316  00000+0  12381-2 0   819
2 58223  43.0001 124.3242 0001659 265.6655 161.6744 15.26716758    12
STARLINK-30875          
1 58224C 23170U   26081.09284722  .00035672  00000+0  12943-2 0   810
2 58224  42.9990 123.9637 0001600 242.1652 298.7612 15.27503615    17
STARLINK-30872          
1 58225C 23170V   26081.08381944  .00056443  00000+0  20444-2 0   818
2 58225  43.0023 342.3151 0001502 257.9784 107.4595 15.27549569    10
STARLINK-30865          
1 58226C 23170W   26081.07340278  .00030044  00000+0  11160-2 0   817
2 58226  43.0000 112.9647 0001464 264.3959 199.9569 15.26733350    19
STARLINK-30874          
1 58227C 23170X   26081.11368056  .00031867  00000+0  11857-2 0   814
2 58227  42.9991 123.9742 0001514 243.3518 359.7332 15.26678562    16
STARLINK-30871          
1 58228C 23170Y   26081.11993056  .00023729  00000+0  86009-3 0   819
2 58228  43.0001 124.1945 0001156 247.9496 279.2463 15.27543304    13
STARLINK-30861          
1 58230C 23171A   26081.07618056  .00038163  00000+0  15791-2 0   819
2 58230  43.0011 215.4609 0002654 297.9086 177.0364 15.23135904    16
